STARLINK-1444_new
1 15661C 20035E   21326.15123211 -.00015488  00000-0 -10376-2 0  3263
2 15661  53.0527 268.0705 0002059  57.7951  30.0941 15.06418356    11
STARLINK-1444_old
1 25661C 20035E   21325.15398520  .00006364  00000-0  42641-3 0  3250
2 25661  53.0528 272.5472 0002048  56.7940  19.9924 15.06391932    15
